ATLAS CENTAUR R/B       
1 06155U 72065B   26089.97644826  .00001731  00000+0  23825-3 0  9992
2 06155  35.0008 180.9978 0033572 190.4621 169.5383 14.77749050844410
SL-8 R/B                
1 08459U 75112B   26090.13592109  .00000268  00000+0  96608-4 0  9997
2 08459  74.0627 339.4641 0014596  63.8825 296.3829 14.38215976634953
SL-3 R/B                
1 10114U 77057B   26090.14582017  .00017155  00000+0  35163-3 0  9997
2 10114  97.5793 263.0249 0006917 196.7439 163.3582 15.46115361671642
SEASAT 1                
1 10967U 78064A   26090.14689023  .00000353  00000+0  13704-3 0  9996
2 10967 108.0072 170.5214 0002677 275.1269  84.9571 14.46178218509614
SL-14 R/B               
1 11267U 79011B   26089.97558259  .00000889  00000+0  85229-4 0  9994
2 11267  82.5212  76.3659 0015742 352.3807   7.7171 14.91936693531959
SL-8 R/B                
1 11574U 79089B   26090.17747360  .00000454  00000+0  14519-3 0  9998
2 11574  74.0692  51.2636 0016682 221.1138 138.8763 14.42364855439208
SL-14 R/B               
1 11672U 80005B   26090.13685793  .00000781  00000+0  76303-4 0  9997
2 11672  82.5110 286.8866 0017254  91.8106 268.5089 14.90955320479684
SL-8 R/B                
1 12139U 81003B   26089.98812191  .00028699  00000+0  71678-3 0  9997
2 12139  82.9324 270.3139 0260583 104.5804 258.4479 15.11933702317896
SL-3 R/B                
1 12465U 81046B   26090.13017525  .00014272  00000+0  32626-3 0  9995
2 12465  81.2280 263.9833 0018151 306.1196  53.8366 15.42526422441730
SL-3 R/B                
1 12904U 81103B   26090.21165648  .00007483  00000+0  32947-3 0  9998
2 12904  81.1614 188.1854 0012899 209.4734 150.5772 15.21634531976507
SL-3 R/B                
1 13068U 82013B   26090.14539916  .00005275  00000+0  22683-3 0  9999
2 13068  81.1731 135.6206 0023625 107.1724 253.2097 15.22207720407618
SL-3 R/B                
1 13154U 82039B   26090.12482301  .00003632  00000+0  21891-3 0  9991
2 13154  81.1568 191.2457 0028463 253.3494 106.4607 15.10202748384871
