CCSDS_OMM_VERS = 2.0
CREATION_DATE  = 
ORIGINATOR     = 

OBJECT_NAME    = ATLAS CENTAUR R/B
OBJECT_ID      = 1972-065B
CENTER_NAME    = EARTH
REF_FRAME      = TEME
TIME_SYSTEM    = UTC
MEAN_ELEMENT_THEORY = SGP/SGP4

EPOCH          = 2026-03-30T23:26:05.129664
MEAN_MOTION    = 14.77749050
ECCENTRICITY   = .0033572
INCLINATION    = 35.0008
RA_OF_ASC_NODE = 180.9978
ARG_OF_PERICENTER = 190.4621
MEAN_ANOMALY   = 169.5383

EPHEMERIS_TYPE = 0
CLASSIFICATION_TYPE = U
NORAD_CAT_ID   = 6155
ELEMENT_SET_NO = 999
REV_AT_EPOCH   = 84441
BSTAR          = .23825E-3
MEAN_MOTION_DOT = .1731E-4
MEAN_MOTION_DDOT = 0

CCSDS_OMM_VERS = 2.0
CREATION_DATE  = 
ORIGINATOR     = 

OBJECT_NAME    = SL-8 R/B
OBJECT_ID      = 1975-112B
CENTER_NAME    = EARTH
REF_FRAME      = TEME
TIME_SYSTEM    = UTC
MEAN_ELEMENT_THEORY = SGP/SGP4

EPOCH          = 2026-03-31T03:15:43.582176
MEAN_MOTION    = 14.38215976
ECCENTRICITY   = .0014596
INCLINATION    = 74.0627
RA_OF_ASC_NODE = 339.4641
ARG_OF_PERICENTER = 63.8825
MEAN_ANOMALY   = 296.3829

EPHEMERIS_TYPE = 0
CLASSIFICATION_TYPE = U
NORAD_CAT_ID   = 8459
ELEMENT_SET_NO = 999
REV_AT_EPOCH   = 63495
BSTAR          = .96608E-4
MEAN_MOTION_DOT = .268E-5
MEAN_MOTION_DDOT = 0

CCSDS_OMM_VERS = 2.0
CREATION_DATE  = 
ORIGINATOR     = 

OBJECT_NAME    = SL-3 R/B
OBJECT_ID      = 1977-057B
CENTER_NAME    = EARTH
REF_FRAME      = TEME
TIME_SYSTEM    = UTC
MEAN_ELEMENT_THEORY = SGP/SGP4

EPOCH          = 2026-03-31T03:29:58.862688
MEAN_MOTION    = 15.46115361
ECCENTRICITY   = .0006917
INCLINATION    = 97.5793
RA_OF_ASC_NODE = 263.0249
ARG_OF_PERICENTER = 196.7439
MEAN_ANOMALY   = 163.3582

EPHEMERIS_TYPE = 0
CLASSIFICATION_TYPE = U
NORAD_CAT_ID   = 10114
ELEMENT_SET_NO = 999
REV_AT_EPOCH   = 67164
BSTAR          = .35163E-3
MEAN_MOTION_DOT = .17155E-3
MEAN_MOTION_DDOT = 0

CCSDS_OMM_VERS = 2.0
CREATION_DATE  = 
ORIGINATOR     = 

OBJECT_NAME    = SEASAT 1
OBJECT_ID      = 1978-064A
CENTER_NAME    = EARTH
REF_FRAME      = TEME
TIME_SYSTEM    = UTC
MEAN_ELEMENT_THEORY = SGP/SGP4

EPOCH          = 2026-03-31T03:31:31.315872
MEAN_MOTION    = 14.46178218
ECCENTRICITY   = .0002677
INCLINATION    = 108.0072
RA_OF_ASC_NODE = 170.5214
ARG_OF_PERICENTER = 275.1269
MEAN_ANOMALY   = 84.9571

EPHEMERIS_TYPE = 0
CLASSIFICATION_TYPE = U
NORAD_CAT_ID   = 10967
ELEMENT_SET_NO = 999
REV_AT_EPOCH   = 50961
BSTAR          = .13704E-3
MEAN_MOTION_DOT = .353E-5
MEAN_MOTION_DDOT = 0

CCSDS_OMM_VERS = 2.0
CREATION_DATE  = 
ORIGINATOR     = 

OBJECT_NAME    = SL-14 R/B
OBJECT_ID      = 1979-011B
CENTER_NAME    = EARTH
REF_FRAME      = TEME
TIME_SYSTEM    = UTC
MEAN_ELEMENT_THEORY = SGP/SGP4

EPOCH          = 2026-03-30T23:24:50.335776
MEAN_MOTION    = 14.91936693
ECCENTRICITY   = .0015742
INCLINATION    = 82.5212
RA_OF_ASC_NODE = 76.3659
ARG_OF_PERICENTER = 352.3807
MEAN_ANOMALY   = 7.7171

EPHEMERIS_TYPE = 0
CLASSIFICATION_TYPE = U
NORAD_CAT_ID   = 11267
ELEMENT_SET_NO = 999
REV_AT_EPOCH   = 53195
BSTAR          = .85229E-4
MEAN_MOTION_DOT = .889E-5
MEAN_MOTION_DDOT = 0

CCSDS_OMM_VERS = 2.0
CREATION_DATE  = 
ORIGINATOR     = 

OBJECT_NAME    = SL-8 R/B
OBJECT_ID      = 1979-089B
CENTER_NAME    = EARTH
REF_FRAME      = TEME
TIME_SYSTEM    = UTC
MEAN_ELEMENT_THEORY = SGP/SGP4

EPOCH          = 2026-03-31T04:15:33.719040
MEAN_MOTION    = 14.42364855
ECCENTRICITY   = .0016682
INCLINATION    = 74.0692
RA_OF_ASC_NODE = 51.2636
ARG_OF_PERICENTER = 221.1138
MEAN_ANOMALY   = 138.8763

EPHEMERIS_TYPE = 0
CLASSIFICATION_TYPE = U
NORAD_CAT_ID   = 11574
ELEMENT_SET_NO = 999
REV_AT_EPOCH   = 43920
BSTAR          = .14519E-3
MEAN_MOTION_DOT = .454E-5
MEAN_MOTION_DDOT = 0

CCSDS_OMM_VERS = 2.0
CREATION_DATE  = 
ORIGINATOR     = 

OBJECT_NAME    = SL-14 R/B
OBJECT_ID      = 1980-005B
CENTER_NAME    = EARTH
REF_FRAME      = TEME
TIME_SYSTEM    = UTC
MEAN_ELEMENT_THEORY = SGP/SGP4

EPOCH          = 2026-03-31T03:17:04.525152
MEAN_MOTION    = 14.90955320
ECCENTRICITY   = .0017254
INCLINATION    = 82.5110
RA_OF_ASC_NODE = 286.8866
ARG_OF_PERICENTER = 91.8106
MEAN_ANOMALY   = 268.5089

EPHEMERIS_TYPE = 0
CLASSIFICATION_TYPE = U
NORAD_CAT_ID   = 11672
ELEMENT_SET_NO = 999
REV_AT_EPOCH   = 47968
BSTAR          = .76303E-4
MEAN_MOTION_DOT = .781E-5
MEAN_MOTION_DDOT = 0

CCSDS_OMM_VERS = 2.0
CREATION_DATE  = 
ORIGINATOR     = 

OBJECT_NAME    = SL-8 R/B
OBJECT_ID      = 1981-003B
CENTER_NAME    = EARTH
REF_FRAME      = TEME
TIME_SYSTEM    = UTC
MEAN_ELEMENT_THEORY = SGP/SGP4

EPOCH          = 2026-03-30T23:42:53.733024
MEAN_MOTION    = 15.11933702
ECCENTRICITY   = .0260583
INCLINATION    = 82.9324
RA_OF_ASC_NODE = 270.3139
ARG_OF_PERICENTER = 104.5804
MEAN_ANOMALY   = 258.4479

EPHEMERIS_TYPE = 0
CLASSIFICATION_TYPE = U
NORAD_CAT_ID   = 12139
ELEMENT_SET_NO = 999
REV_AT_EPOCH   = 31789
BSTAR          = .71678E-3
MEAN_MOTION_DOT = .28699E-3
MEAN_MOTION_DDOT = 0

CCSDS_OMM_VERS = 2.0
CREATION_DATE  = 
ORIGINATOR     = 

OBJECT_NAME    = SL-3 R/B
OBJECT_ID      = 1981-046B
CENTER_NAME    = EARTH
REF_FRAME      = TEME
TIME_SYSTEM    = UTC
MEAN_ELEMENT_THEORY = SGP/SGP4

EPOCH          = 2026-03-31T03:07:27.141600
MEAN_MOTION    = 15.42526422
ECCENTRICITY   = .0018151
INCLINATION    = 81.2280
RA_OF_ASC_NODE = 263.9833
ARG_OF_PERICENTER = 306.1196
MEAN_ANOMALY   = 53.8366

EPHEMERIS_TYPE = 0
CLASSIFICATION_TYPE = U
NORAD_CAT_ID   = 12465
ELEMENT_SET_NO = 999
REV_AT_EPOCH   = 44173
BSTAR          = .32626E-3
MEAN_MOTION_DOT = .14272E-3
MEAN_MOTION_DDOT = 0

CCSDS_OMM_VERS = 2.0
CREATION_DATE  = 
ORIGINATOR     = 

OBJECT_NAME    = SL-3 R/B
OBJECT_ID      = 1981-103B
CENTER_NAME    = EARTH
REF_FRAME      = TEME
TIME_SYSTEM    = UTC
MEAN_ELEMENT_THEORY = SGP/SGP4

EPOCH          = 2026-03-31T05:04:47.119872
MEAN_MOTION    = 15.21634531
ECCENTRICITY   = .0012899
INCLINATION    = 81.1614
RA_OF_ASC_NODE = 188.1854
ARG_OF_PERICENTER = 209.4734
MEAN_ANOMALY   = 150.5772

EPHEMERIS_TYPE = 0
CLASSIFICATION_TYPE = U
NORAD_CAT_ID   = 12904
ELEMENT_SET_NO = 999
REV_AT_EPOCH   = 97650
BSTAR          = .32947E-3
MEAN_MOTION_DOT = .7483E-4
MEAN_MOTION_DDOT = 0

CCSDS_OMM_VERS = 2.0
CREATION_DATE  = 
ORIGINATOR     = 

OBJECT_NAME    = SL-3 R/B
OBJECT_ID      = 1982-013B
CENTER_NAME    = EARTH
REF_FRAME      = TEME
TIME_SYSTEM    = UTC
MEAN_ELEMENT_THEORY = SGP/SGP4

EPOCH          = 2026-03-31T03:29:22.487424
MEAN_MOTION    = 15.22207720
ECCENTRICITY   = .0023625
INCLINATION    = 81.1731
RA_OF_ASC_NODE = 135.6206
ARG_OF_PERICENTER = 107.1724
MEAN_ANOMALY   = 253.2097

EPHEMERIS_TYPE = 0
CLASSIFICATION_TYPE = U
NORAD_CAT_ID   = 13068
ELEMENT_SET_NO = 999
REV_AT_EPOCH   = 40761
BSTAR          = .22683E-3
MEAN_MOTION_DOT = .5275E-4
MEAN_MOTION_DDOT = 0

CCSDS_OMM_VERS = 2.0
CREATION_DATE  = 
ORIGINATOR     = 

OBJECT_NAME    = SL-3 R/B
OBJECT_ID      = 1982-039B
CENTER_NAME    = EARTH
REF_FRAME      = TEME
TIME_SYSTEM    = UTC
MEAN_ELEMENT_THEORY = SGP/SGP4

EPOCH          = 2026-03-31T02:59:44.708064
MEAN_MOTION    = 15.10202748
ECCENTRICITY   = .0028463
INCLINATION    = 81.1568
RA_OF_ASC_NODE = 191.2457
ARG_OF_PERICENTER = 253.3494
MEAN_ANOMALY   = 106.4607

EPHEMERIS_TYPE = 0
CLASSIFICATION_TYPE = U
NORAD_CAT_ID   = 13154
ELEMENT_SET_NO = 999
REV_AT_EPOCH   = 38487
BSTAR          = .21891E-3
MEAN_MOTION_DOT = .3632E-4
MEAN_MOTION_DDOT = 0

